STARLINK-35512          
1 66330U 25253M   26187.24415257  .00023579  00000+0  86464-3 0  9995
2 66330  42.9992 263.1695 0001504 263.0664  97.0017 15.27541480 38376
STARLINK-35257          
1 66331U 25253N   26187.27355745  .00043212  00000+0  15704-2 0  9998
2 66331  43.0024 262.5243 0002467 306.1158  53.9465 15.27583520 38383
STARLINK-35322          
1 66332U 25253P   26187.28384458  .00030248  00000+0  11052-2 0  9990
2 66332  42.9998 262.6080 0001374 265.1732  94.8963 15.27549310 38386
STARLINK-35400          
1 66333U 25253Q   26187.26340930  .00025081  00000+0  91732-3 0  9999
2 66333  43.0002 263.3086 0001268 256.1439 103.9271 15.27598550 38378
STARLINK-35407          
1 66334U 25253R   26187.27613548  .00022297  00000+0  81833-3 0  9996
2 66334  43.0003 262.5485 0002865 295.6387  64.4169 15.27537960 38384
STARLINK-35417          
1 66335U 25253S   26187.23259349  .00026722  00000+0  97819-3 0  9996
2 66335  43.0007 263.0801 0001334 274.3946  85.6753 15.27541878 38378
STARLINK-35404          
1 66336U 25253T   26186.56971073  .00006485  00000+0  24541-3 0  9993
2 66336  43.0003 266.7029 0001447 287.6981  72.3713 15.27522120 38275
STARLINK-34783          
1 66337U 25253U   26187.26214468  .00031284  00000+0  11425-2 0  9991
2 66337  43.0031 263.3058 0001581 262.1195  97.9477 15.27551361 38376
STARLINK-35477          
1 66338U 25253V   26187.22230428  .00025243  00000+0  92344-3 0  9990
2 66338  42.9995 263.0043 0002042 258.4572 101.6051 15.27588447 38371
STARLINK-35443          
1 66339U 25253W   26186.90177921  .00024677  00000+0  90260-3 0  9998
2 66339  42.9961 264.8891 0002363 289.5401  70.5195 15.27602278 38324
STARLINK-35218          
1 66340U 25253X   26187.25186648  .00029896  00000+0  10928-2 0  9995
2 66340  43.0002 263.2199 0001801 262.4513  97.6134 15.27540106 38377
STARLINK-35522          
1 66341U 25253Y   26186.91464592  .00019685  00000+0  72423-3 0  9999
2 66341  42.9994 264.9927 0001017 286.1916  73.8824 15.27522101 38324
STARLINK-35535          
1 66342U 25253Z   26187.23644287  .00012486  00000+0  46295-3 0  9997
2 66342  42.9954 263.1016 0001319 280.6951  79.3752 15.27546310 38378
STARLINK-35467          
1 66343U 25253AA  26187.24800476  .00039016  00000+0  14207-2 0  9998
2 66343  43.0022 263.1922 0002841 266.5048  93.5479 15.27559263 38379
STARLINK-35511          
1 66344U 25253AB  26186.94020799  .00023537  00000+0  86272-3 0  9990
2 66344  43.0010 264.3169 0001756 240.4972 119.5704 15.27556922 38339
STARLINK-35440          
1 66345U 25253AC  26186.91079052  .00019435  00000+0  71506-3 0  9990
2 66345  42.9985 264.9586 0001204 291.5770  68.4953 15.27526793 38329
STARLINK-35482          
1 66346U 25253AD  26187.28127296  .00032495  00000+0  11861-2 0  9994
2 66346  43.0027 262.5862 0001637 275.5923  84.4742 15.27554580 38387
STARLINK-35438          
1 66347U 25253AE  26187.27227830  .00026638  00000+0  97513-3 0  9990
2 66347  43.0028 262.5081 0001563 272.7157  87.3516 15.27543015 38380
STARLINK-35849          
1 66348U 25254A   26187.58336806  .00043466  00000+0  12906-2 0  9990
2 66348  53.1594  40.3266 0001202  94.1033  32.3771 15.34389290  5778
STARLINK-35848          
1 66349U 25254B   26187.45091361  .00021962  00000+0  71624-3 0  9991
2 66349  53.1599  40.4645 0000891  69.3260 290.7837 15.31751466 37161
STARLINK-35829          
1 66350U 25254C   26186.98017417  .00061628  00000+0  19835-2 0  9998
2 66350  53.1600  42.5013 0001381  72.7643 287.3510 15.31664987 37099
STARLINK-35828          
1 66351U 25254D   26187.01741950  .00039325  00000+0  12745-2 0  9992
2 66351  53.1584  42.0213 0001128  52.1828 307.9275 15.31644690 37102
STARLINK-35850          
1 66352U 25254E   26186.99997473  .00022706  00000+0  77736-3 0  9999
2 66352  53.1600  42.6184 0001611  71.8265 288.2911 15.30160510 37094
STARLINK-35869          
1 66353U 25254F   26186.99363777  .00028883  00000+0  98441-3 0  9992
2 66353  53.1601  42.5780 0000670 118.8269 241.2799 15.30170109 37095
STARLINK-35895          
1 66354U 25254G   26186.77471765  .00036279  00000+0  11100-2 0  9990
2 66354  53.1591  44.0708 0000612 123.6836 236.4225 15.33523980 37059
STARLINK-35861          
1 66355U 25254H   26187.58336806  .00045044  00000+0  15240-2 0  9996
2 66355  53.1600  40.4278 0001022 132.4290 301.4786 15.30195255  5823
STARLINK-35851          
1 66356U 25254J   26187.03644294  .00036514  00000+0  11177-2 0  9997
2 66356  53.1592  42.8478 0001336 124.9880 235.1247 15.33504359 37092
STARLINK-35817          
1 66357U 25254K   26187.03479583  .00029849  00000+0  10177-2 0  9997
2 66357  53.1578  42.8368 0001030 120.8998 239.2104 15.30141137 37096
STARLINK-35807          
1 66358U 25254L   26186.97550450  .00022788  00000+0  74507-3 0  9996
2 66358  53.1588  42.4694 0001038 116.8569 243.2538 15.31647515 37091
STARLINK-35805          
1 66359U 25254M   26187.00808406  .00032640  00000+0  10607-2 0  9997
2 66359  53.1594  41.9621 0000989  40.7654 319.3422 15.31648113 38236
