OBJECT_NAME,OBJECT_ID,EPOCH,MEAN_MOTION,ECCENTRICITY,INCLINATION,RA_OF_ASC_NODE,ARG_OF_PERICENTER,MEAN_ANOMALY,EPHEMERIS_TYPE,CLASSIFICATION_TYPE,NORAD_CAT_ID,ELEMENT_SET_NO,REV_AT_EPOCH,BSTAR,MEAN_MOTION_DOT,MEAN_MOTION_DDOT
STARLINK-35512,2025-253M,2026-07-06T05:51:34.782048,15.27541480,.00015044,42.9992,263.1695,263.0664,97.0017,0,U,66330,999,3837,.8646351E-3,.23579E-3,0
STARLINK-35257,2025-253N,2026-07-06T06:33:55.363680,15.27583520,.00024673,43.0024,262.5243,306.1158,53.9465,0,U,66331,999,3838,.15703963E-2,.43212E-3,0
STARLINK-35322,2025-253P,2026-07-06T06:48:44.171712,15.27549310,.00013741,42.9998,262.6080,265.1732,94.8963,0,U,66332,999,3838,.11052343E-2,.30248E-3,0
STARLINK-35400,2025-253Q,2026-07-06T06:19:18.563520,15.27598550,.00012688,43.0002,263.3086,256.1439,103.9271,0,U,66333,999,3837,.91732307E-3,.25081E-3,0
STARLINK-35407,2025-253R,2026-07-06T06:37:38.105472,15.27537960,.00028655,43.0003,262.5485,295.6387,64.4169,0,U,66334,999,3838,.81833305E-3,.22297E-3,0
STARLINK-35417,2025-253S,2026-07-06T05:34:56.077536,15.27541878,.00013344,43.0007,263.0801,274.3946,85.6753,0,U,66335,999,3837,.97819153E-3,.26722E-3,0
STARLINK-35404,2025-253T,2026-07-05T13:40:23.007072,15.27522120,.0001447,43.0003,266.7029,287.6981,72.3713,0,U,66336,999,3827,.24541E-3,.6485E-4,0
STARLINK-34783,2025-253U,2026-07-06T06:17:29.300352,15.27551361,.00015819,43.0031,263.3058,262.1195,97.9477,0,U,66337,999,3837,.11425492E-2,.31284E-3,0
STARLINK-35477,2025-253V,2026-07-06T05:20:07.089792,15.27588447,.00020426,42.9995,263.0043,258.4572,101.6051,0,U,66338,999,3837,.92344132E-3,.25243E-3,0
STARLINK-35443,2025-253W,2026-07-05T21:38:33.723744,15.27602278,.0002363,42.9961,264.8891,289.5401,70.5195,0,U,66339,999,3832,.9026E-3,.24677E-3,0
STARLINK-35218,2025-253X,2026-07-06T06:02:41.263872,15.27540106,.00018012,43.0002,263.2199,262.4513,97.6134,0,U,66340,999,3837,.10928364E-2,.29896E-3,0
STARLINK-35522,2025-253Y,2026-07-05T21:57:05.407488,15.27522101,.00010179,42.9994,264.9927,286.1916,73.8824,0,U,66341,999,3832,.7242286E-3,.19685E-3,0
STARLINK-35535,2025-253Z,2026-07-06T05:40:28.663968,15.27546310,.00013195,42.9954,263.1016,280.6951,79.3752,0,U,66342,999,3837,.46295154E-3,.12486E-3,0
STARLINK-35467,2025-253AA,2026-07-06T05:57:07.611264,15.27559263,.00028417,43.0022,263.1922,266.5048,93.5479,0,U,66343,999,3837,.14206737E-2,.39016E-3,0
STARLINK-35511,2025-253AB,2026-07-05T22:33:53.970336,15.27556922,.0001756,43.0010,264.3169,240.4972,119.5704,0,U,66344,999,3833,.86272E-3,.23537E-3,0
STARLINK-35440,2025-253AC,2026-07-05T21:51:32.300928,15.27526793,.0001204,42.9985,264.9586,291.5770,68.4953,0,U,66345,999,3832,.71506E-3,.19435E-3,0
STARLINK-35482,2025-253AD,2026-07-06T06:45:01.983744,15.27554580,.0001637,43.0027,262.5862,275.5923,84.4742,0,U,66346,999,3838,.11860728E-2,.32495E-3,0
STARLINK-35438,2025-253AE,2026-07-06T06:32:04.845120,15.27543015,.00015638,43.0028,262.5081,272.7157,87.3516,0,U,66347,999,3838,.97513336E-3,.26638E-3,0
STARLINK-35849,2025-254A,2026-07-06T14:00:03.000384,15.34389290,.0001202,53.1594,40.3266,94.1033,32.3771,0,U,66348,999,577,.1290591E-2,.43466E-3,0
STARLINK-35848,2025-254B,2026-07-06T10:49:18.935904,15.31751466,.00008914,53.1599,40.4645,69.3260,290.7837,0,U,66349,999,3716,.71623832E-3,.21962E-3,0
STARLINK-35829,2025-254C,2026-07-05T23:31:27.048288,15.31664987,.0001381,53.1600,42.5013,72.7643,287.3510,0,U,66350,999,3709,.19835E-2,.61628E-3,0
STARLINK-35828,2025-254D,2026-07-06T00:25:05.044800,15.31644690,.0001128,53.1584,42.0213,52.1828,307.9275,0,U,66351,999,3710,.12745E-2,.39325E-3,0
STARLINK-35850,2025-254E,2026-07-05T23:59:57.816672,15.30160510,.0001611,53.1600,42.6184,71.8265,288.2911,0,U,66352,999,3709,.77736E-3,.22706E-3,0
STARLINK-35869,2025-254F,2026-07-05T23:50:50.303328,15.30170109,.000067,53.1601,42.5780,118.8269,241.2799,0,U,66353,999,3709,.98441E-3,.28883E-3,0
STARLINK-35895,2025-254G,2026-07-05T18:35:35.604960,15.33523980,.0000612,53.1591,44.0708,123.6836,236.4225,0,U,66354,999,3705,.11099648E-2,.36279E-3,0
STARLINK-35861,2025-254H,2026-07-06T14:00:03.000384,15.30195255,.00010225,53.1600,40.4278,132.4290,301.4786,0,U,66355,999,582,.15239785E-2,.45044E-3,0
STARLINK-35851,2025-254J,2026-07-06T00:52:28.670016,15.33504359,.0001336,53.1592,42.8478,124.9880,235.1247,0,U,66356,999,3709,.11177E-2,.36514E-3,0
STARLINK-35817,2025-254K,2026-07-06T00:50:06.359712,15.30141137,.000103,53.1578,42.8368,120.8998,239.2104,0,U,66357,999,3709,.10177E-2,.29849E-3,0
STARLINK-35807,2025-254L,2026-07-05T23:24:43.588800,15.31647515,.0001038,53.1588,42.4694,116.8569,243.2538,0,U,66358,999,3709,.74507E-3,.22788E-3,0
STARLINK-35805,2025-254M,2026-07-06T00:11:38.462784,15.31648113,.0000989,53.1594,41.9621,40.7654,319.3422,0,U,66359,999,3823,.10607E-2,.3264E-3,0
